UNKNOWN                 
1 81838U          25250.01386889  .00009585  00000+0  22116-2 0  9995
2 81838  67.7616 158.7977 0034057 111.8074 258.9773 14.55211437619255
UNKNOWN                 
1 81844U          25246.58134613  .00011486  00000+0  42099-2 0  9990
2 81844  82.9137   4.4924 0065796 101.8179 259.0399 14.31530782608555
UNKNOWN                 
1 81845U          25249.81680633  .00004583  00000+0  51734-3 0  9995
2 81845  97.6809  80.3639 0087883 263.7383 110.9622 14.84236562635143
UNKNOWN                 
1 81864U          25251.37838020  .00001089  00000+0  46489-3 0  9994
2 81864  65.6727 289.6185 0758099  54.6768 312.2772 13.31911460538138
UNKNOWN                 
1 81865U          25251.34402235  .00001195  00000+0  98397-3 0  9990
2 81865  82.8019 102.3177 0062562 276.7831 265.9836 13.87588154595316
UNKNOWN                 
1 81893U          25252.15967299  .00000926  00000+0  99583-3 0  9996
2 81893 100.0347 230.3377 0020715 147.9017 212.3396 13.76400427591066
UNKNOWN                 
1 81899U          25246.07276817  .00000687  00000+0  17089-2 0  9999
2 81899 102.4167 329.7912 0176971  68.0507 293.9306 13.19856053565704
UNKNOWN                 
1 81921U          25246.47248524  .00003803  00000+0  15151-2 0  9994
2 81921  65.7055 280.6712 0852821 157.7980 206.2427 13.14724839 12604
UNKNOWN                 
1 81946U          25252.25255354 -.00000502  00000+0 -14863-2 0  9997
2 81946  66.4220 334.3574 0666510  37.1040 356.6072 12.42553920536149
UNKNOWN                 
1 81947U          25251.78915887  .00007984  00000+0  74069-3 0  9993
2 81947  66.0741  72.7932 0392338 201.2772 157.1628 14.50940445617239
UNKNOWN                 
1 81964U          25250.94196984  .00000255  00000+0  24363-3 0  9994
2 81964  66.5842 136.6770 0033703 161.9426 198.2859 13.95707565600675
UNKNOWN                 
1 81969U          25252.29047959  .00009129  00000+0  58680-3 0  9994
2 81969  86.6947 194.2841 0007098 129.6538 230.5327 15.08278616425920
UNKNOWN                 
1 81995U          25251.61376558  .00003123  00000+0  62929-3 0  9997
2 81995  65.7494  12.4804 0520853 343.9349  14.5726 14.01945214590882
UNKNOWN                 
1 82043U          25252.39544717  .00001247  00000+0  35840-3 0  9999
2 82043  97.9213  49.0941 0233997   7.3989 353.0552 14.31702244560345
UNKNOWN                 
1 82051U          25250.96924789  .00006307  00000+0  21429-2 0  9999
2 82051  98.7521 335.1647 0096186 182.0105 178.0706 14.34366459558671
UNKNOWN                 
1 82073U          25252.01163813  .00002853  00000+0  74257-3 0  9994
2 82073  97.7596 337.1633 0209513 216.3092 142.3728 14.37994021561508
UNKNOWN                 
1 82139U          25243.12552426  .00002570  00000+0  13156-2 0  9997
2 82139  99.0323 309.7822 0081769 336.2322  23.5083 14.14711638465466
UNKNOWN                 
1 82162U          25252.22758423  .00003193  00000+0  48400-2 0  9991
2 82162 100.4782 171.3770 0055023  83.2589 277.4801 13.52631844491526
UNKNOWN                 
1 82180U          25243.33780203  .00020751  00000+0  27639-2 0  9994
2 82180  65.6539 219.6378 0341067 269.0892  87.1120 14.46590355586772
UNKNOWN                 
1 82189U          25248.22015515  .00000618  00000+0  22536-3 0  9995
2 82189  74.0330 228.9386 0015116  83.4591 276.8281 14.35105835618283
UNKNOWN                 
1 82199U          25246.45027700  .00000680  00000+0  57888-3 0  9995
2 82199  82.9675 309.2917 0035379 322.8017  58.3060 13.85628372595803
UNKNOWN                 
1 82205U          25252.18744302  .00001503  00000+0  46020-3 0  9995
2 82205  63.0118 153.5923 0493762 283.1577  71.4838 13.92479239594839
UNKNOWN                 
1 82223U          25252.13897230  .00001905  00000+0  10592-2 0  9999
2 82223  99.3242 134.4678 0067764 250.8171 108.5656 14.11219818435442
UNKNOWN                 
1 82250U          25252.23547814  .00002672  00000+0  14239-2 0  9994
2 82250  98.8996 158.1227 0073840  96.6078  54.2029 14.12804783603281
UNKNOWN                 
1 82272U          25250.06124817  .00000633  00000+0  20873-2 0  9997
2 82272  67.5266  15.8075 0757981 168.5732 193.3617 12.33458757260014
UNKNOWN                 
1 82295U          25249.16718638  .00001497  00000+0  54942-3 0  9995
2 82295  66.6194  44.7728 0130145 288.7349  69.9663 14.30946221565767
UNKNOWN                 
1 82303U          25249.81414334  .00021457  00000+0  20359-1 0  9994
2 82303  81.9356  86.3500 0081444 261.4512 119.8564 13.79279882501033
UNKNOWN                 
1 82311U          25250.87649775  .00000721  00000+0  10751-2 0  9997
2 82311  99.4436 309.0351 0111302 188.9590 170.9563 13.54375456537347
UNKNOWN                 
1 82363U          25250.66542555  .00000377  00000+0  67786-3 0  9997
2 82363  66.9378  39.6886 0462617 226.8961 129.2501 13.15491828277629
UNKNOWN                 
1 82369U          25251.78176761  .00000200  00000+0  16652-3 0  9990
2 82369  98.9075 269.6827 0082466 240.9031 118.3857 13.98097185543908
UNKNOWN                 
1 82381U          25251.42526800  .00017502  00000+0  25955-2 0  9996
2 82381  98.4040 112.1917 0011975  80.5225 279.7335 14.75093240496736
UNKNOWN                 
1 82402U          25252.27335372  .00005545  00000+0  42276-3 0  9996
2 82402  86.6707 196.3056 0010545 132.7952 227.4170 15.01807796440281
UNKNOWN                 
1 82410U          25246.22332339  .00000281  00000+0  35505-3 0  9992
2 82410  66.6560 220.2472 0055059 110.5534 250.1456 13.77165734572896
UNKNOWN                 
1 82432U          25247.04706278  .00004415  00000+0  94713-3 0  9993
2 82432  74.0081 170.6349 0056371 357.3159   2.7694 14.57949204468377
UNKNOWN                 
1 82448U          25252.46694155  .00005839  00000+0  44434-3 0  9998
2 82448  85.8674 249.6303 0006546 230.0361 130.0297 15.01912418422887
UNKNOWN                 
1 82453U          25250.64421959  .00000008  00000+0  39205-3 0  9995
2 82453 102.1577 207.1446 0094535  24.2893 336.2584 12.39693327534159
UNKNOWN                 
1 82458U          25248.26270997  .00004965  00000+0  22617-2 0  9993
2 82458  66.5134  79.8068 0045529  82.1294 278.4963 14.21894083596035
UNKNOWN                 
1 82484U          25250.36337105  .00000188  00000+0  32667-3 0  9991
2 82484  99.3681 276.8862 0045228  80.4084 280.2161 13.55748257577576
UNKNOWN                 
1 82494U          25251.31111833  .00019033  00000+0  24335-2 0  9997
2 82494  74.0095 211.1529 0007408 336.9447  23.1397 14.81331710 70810
UNKNOWN                 
1 82500U          25252.22908962  .00002829  00000+0  13135-2 0  9994
2 82500  70.9672 203.6860 0125545 260.3297  98.3626 14.17423466605557
UNKNOWN                 
1 82524U          25251.07118566  .00004123  00000+0  13674-2 0  9992
2 82524  73.2856   4.8190 0137128 135.5468  39.7675 14.32967305563326
UNKNOWN                 
1 82529U          25224.46796591  .00000670  00000+0  10913-2 0  9996
2 82529  99.7957 311.7152 0238027 179.0635 244.3353 13.41004521573355
UNKNOWN                 
1 82545U          25248.91541492 -.00000014  00000+0  77769-3 0  9994
2 82545  64.8871 327.0689 0183530 308.9362  49.5328 11.30806942427857
UNKNOWN                 
1 82560U          25252.31463479  .00001216  00000+0  10221-2 0  9991
2 82560  99.9774 187.9720 0008462 191.2507 319.8271 13.90253459598742
UNKNOWN                 
1 82561U          25226.08099421  .00030034  00000+0  36367-2 0  9998
2 82561  63.0902 156.0288 0400847  78.5273 286.0521 14.39869947596294
UNKNOWN                 
1 82597U          25246.16934009  .00002825  00000+0  97113-3 0  9992
2 82597  66.7697  52.6644 0089934  20.4928 339.9744 14.35184960614549
UNKNOWN                 
1 82617U          25250.23230665  .00000869  00000+0  23350-3 0  9993
2 82617  74.0257  64.7547 0038147  31.1176 329.2231 14.49192706622843
UNKNOWN                 
1 82627U          25234.56456429  .00000660  00000+0  17052-2 0  9990
2 82627  82.4787 328.6306 0009301  48.8216  12.4188 13.16099679564070
UNKNOWN                 
1 82642U          25251.98828296  .00001158  00000+0  66545-3 0  9992
2 82642  98.9695 163.2441 0136896 141.0703 220.0420 14.06606988602815
UNKNOWN                 
1 82683U          25251.98322841  .00000862  00000+0  34289-3 0  9993
2 82683  98.1829 328.0173 0210452 313.4115  44.9710 14.19732124448827
UNKNOWN                 
1 82693U          25251.63624850  .00002513  00000+0  29605-2 0  9991
2 82693 100.5291 206.4674 0039630 268.6379  91.0222 13.68819329540745
UNKNOWN                 
1 82698U          25251.71657763  .00001577  00000+0  97898-3 0  9993
2 82698  61.6102  44.8116 0685625 254.0613  98.3852 13.28935768525748
UNKNOWN                 
1 82708U          25243.99462166  .00001396  00000+0  54723-2 0  9995
2 82708 102.1740  77.2201 0059908 133.1848 227.4271 12.90309171510262
UNKNOWN                 
1 82729U          25251.87432391  .00000106  00000+0  49702-3 0  9991
2 82729  67.9689 309.8429 0823946  76.1398 292.9802 12.17601734523651
UNKNOWN                 
1 82739U          25250.72326575  .00002468  00000+0  20682-2 0  9999
2 82739  99.0833  50.4279 0175893 189.9569 187.4386 13.82217347592843
UNKNOWN                 
1 82741U          25251.83819829  .00002166  00000+0  23880-2 0  9992
2 82741 102.8509 256.7941 0201484 118.7151 243.4391 13.65369587584125
UNKNOWN                 
1 82783U          25251.15933752  .00001090  00000+0  31663-2 0  9998
2 82783  90.3371  35.1324 0021692  15.0056 345.1710 13.08841069491856
UNKNOWN                 
1 82798U          25232.41890888  .00001594  00000+0  70792-3 0  9990
2 82798  82.9486 283.3588 0032589 153.1850 226.4764 14.22178178296100
UNKNOWN                 
1 82820U          25251.67185696  .00003604  00000+0  12972-2 0  9998
2 82820  99.7855  39.9292 0049608 285.3456  74.2245 14.33799642612000
